1 40377U 15003B   17016.88242764  .00002749  00000-0  12208-3 0  9994
2 40377  99.1080 170.8963 0139572 143.1230 217.9694 15.14382353108108
